[{"OBJECT_NAME":"STARLINK-5826","OBJECT_ID":"2023-028AT","EPOCH":"2026-03-09T18:27:48.359808","MEAN_MOTION":14.98361608,"ECCENTRICITY":0.00040009,"INCLINATION":69.9986,"RA_OF_ASC_NODE":204.4326,"ARG_OF_PERICENTER":275.9334,"MEAN_ANOMALY":84.1369,"EPHEMERIS_TYPE":0,"CLASSIFICATION_TYPE":"U","NORAD_CAT_ID":55782,"ELEMENT_SET_NO":999,"REV_AT_EPOCH":16703,"BSTAR":-7.5635032e-5,"MEAN_MOTION_DOT":-9.96e-6,"MEAN_MOTION_DDOT":0},{"OBJECT_NAME":"TURKSAT-3USAT","OBJECT_ID":"2013-018C","EPOCH":"2026-03-09T19:52:59.932416","MEAN_MOTION":14.95734186,"ECCENTRICITY":0.00131837,"INCLINATION":97.7913,"RA_OF_ASC_NODE":160.1317,"ARG_OF_PERICENTER":74.0986,"MEAN_ANOMALY":286.1687,"EPHEMERIS_TYPE":0,"CLASSIFICATION_TYPE":"U","NORAD_CAT_ID":39152,"ELEMENT_SET_NO":999,"REV_AT_EPOCH":69623,"BSTAR":0.00039789997,"MEAN_MOTION_DOT":4.382e-5,"MEAN_MOTION_DDOT":0}]
